*******************************************************************************
 Revised: Jul 31, 2013           Saturn Barycenter                            6
 
 Dynamical point:
 ---------------
 The location of the center-of-mass of the Saturn system. The point about which
 Saturn and its satellites revolve. See 699 for Saturn center.
*******************************************************************************
 
 
*******************************************************************************
Ephemeris / WWW_USER Wed Jun 17 12:23:55 2020 Pasadena, USA      / Horizons
*******************************************************************************
Target body name: Saturn Barycenter (6)           {source: DE431mx}
Center body name: Solar System Barycenter (0)     {source: DE431mx}
Center-site name: BODY CENTER
*******************************************************************************
Start time      : A.D. 2000-Jun-05 00:00:00.0000 TDB
Stop  time      : A.D. 2040-May-26 00:00:00.0000 TDB
Step-size       : 14400 minutes
*******************************************************************************
Center geodetic : 0.00000000,0.00000000,0.0000000 {E-lon(deg),Lat(deg),Alt(km)}
Center cylindric: 0.00000000,0.00000000,0.0000000 {E-lon(deg),Dxy(km),Dz(km)}
Center radii    : (undefined)                                                  
Output units    : AU-D
Output type     : GEOMETRIC cartesian states
Output format   : 3 (position, velocity, LT, range, range-rate)
Reference frame : Ecliptic of J2000.0
*******************************************************************************
JDTDB
   X     Y     Z
   VX    VY    VZ
   LT    RG    RR
*******************************************************************************
$$SOE
2451970.500000000 = A.D. 2001-Mar-02 00:00:00.0000 TDB 
 X = 4.373238490345322E+00 Y = 7.970933289373052E+00 Z =-3.127173080213086E-01
 VX=-5.184406828112989E-03 VY= 2.671339895511645E-03 VZ= 1.597875503329838E-04
 LT= 5.254096177540237E-02 RG= 9.097185526953346E+00 RR=-1.571413178623974E-04
2451980.500000000 = A.D. 2001-Mar-12 00:00:00.0000 TDB 
 X = 4.321308382610065E+00 Y = 7.997489535674974E+00 Z =-3.111132612501260E-01
 VX=-5.201582108166797E-03 VY= 2.639889453584954E-03 VZ= 1.610208416690539E-04
 LT= 5.253193061428499E-02 RG= 9.095621829879056E+00 RR=-1.555965971455777E-04
2451990.500000000 = A.D. 2001-Mar-22 00:00:00.0000 TDB 
 X = 4.269207502076283E+00 Y = 8.023730682356316E+00 Z =-3.094969105378008E-01
 VX=-5.218561220285911E-03 VY= 2.608320185377122E-03 VZ= 1.622483280578495E-04
 LT= 5.252298892846081E-02 RG= 9.094073624971539E+00 RR=-1.540428882493743E-04
2452000.500000000 = A.D. 2001-Apr-01 00:00:00.0000 TDB 
 X = 4.216937815431510E+00 Y = 8.049655547586188E+00 Z =-3.078683142481789E-01
 VX=-5.235343164612761E-03 VY= 2.576633378521481E-03 VZ= 1.634699466981237E-04
 LT= 5.251413723635164E-02 RG= 9.092541001992753E+00 RR=-1.524802158958186E-04
2452010.500000000 = A.D. 2001-Apr-11 00:00:00.0000 TDB 
 X = 4.164501299308315E+00 Y = 8.075262962447557E+00 Z =-3.062275313709211E-01
 VX=-5.251926952014182E-03 VY= 2.544830328159779E-03 VZ= 1.646856352281915E-04
 LT= 5.250537605482190E-02 RG= 9.091024050434992E+00 RR=-1.509086092777455E-04
2452020.500000000 = A.D. 2001-Apr-21 00:00:00.0000 TDB 
 X = 4.111899940176524E+00 Y = 8.100551771012407E+00 Z =-3.045746215171042E-01
 VX=-5.268311604191420E-03 VY= 2.512912336956123E-03 VZ= 1.658953317261828E-04
 LT= 5.249670589892288E-02 RG= 9.089522859476633E+00 RR=-1.493281019733582E-04
2452030.500000000 = A.D. 2001-May-01 00:00:00.0000 TDB 
 X = 4.059135734234315E+00 Y = 8.125520830417075E+00 Z =-3.029096449148322E-01
 VX=-5.284496153786479E-03 VY= 2.480880715124640E-03 VZ= 1.670989747078443E-04
 LT= 5.248812728164238E-02 RG= 9.088037517938742E+00 RR=-1.477387318414290E-04
2452040.500000000 = A.D. 2001-May-11 00:00:00.0000 TDB 
 X = 4.006210687298494E+00 Y = 8.150169010937818E+00 Z =-3.012326624049018E-01
 VX=-5.300479644443708E-03 VY= 2.448736780415165E-03 VZ= 1.682965031174685E-04
 LT= 5.247964071366062E-02 RG= 9.086568114242874E+00 RR=-1.461405409288934E-04
2452050.500000000 = A.D. 2001-May-21 00:00:00.0000 TDB 
 X = 3.953126814693813E+00 Y = 8.174495196065461E+00 Z =-2.995437354365129E-01
 VX=-5.316261130969177E-03 VY= 2.416481857975384E-03 VZ= 1.694878563330244E-04
 LT= 5.247124670310710E-02 RG= 9.085114736368926E+00 RR=-1.445335755298927E-04
2452060.500000000 = A.D. 2001-May-31 00:00:00.0000 TDB 
 X = 3.899886141140237E+00 Y = 8.198498282579163E+00 Z =-2.978429260628612E-01
 VX=-5.331839679538670E-03 VY= 2.384117280333656E-03 VZ= 1.706729741771771E-04
 LT= 5.246294575531527E-02 RG= 9.083677471812662E+00 RR=-1.429178861522703E-04
2452070.500000000 = A.D. 2001-Jun-10 00:00:00.0000 TDB 
 X = 3.846490700638678E+00 Y = 8.222177180620479E+00 Z =-2.961302969367207E-01
 VX=-5.347214367803399E-03 VY= 2.351644387441468E-03 VZ= 1.718517969105041E-04
 LT= 5.245473837258330E-02 RG= 9.082256407544316E+00 RR=-1.412935273776337E-04
2452080.500000000 = A.D. 2001-Jun-20 00:00:00.0000 TDB 
 X = 3.792942536355650E+00 Y = 8.245530813767482E+00 Z =-2.944059113060746E-01
 VX=-5.362384285015303E-03 VY= 2.319064526643255E-03 VZ= 1.730242652312462E-04
 LT= 5.244662505394115E-02 RG= 9.080851629968251E+00 RR=-1.396605577901583E-04
2452090.500000000 = A.D. 2001-Jun-30 00:00:00.0000 TDB 
 X = 3.739243700506545E+00 Y = 8.268558119108610E+00 Z =-2.926698330097289E-01
 VX=-5.377348532171553E-03 VY= 2.286379052671691E-03 VZ= 1.741903202768444E-04
 LT= 5.243860629492170E-02 RG= 9.079463224883325E+00 RR=-1.380190398850008E-04
2452100.500000000 = A.D. 2001-Jul-10 00:00:00.0000 TDB 
 X = 3.685396254237474E+00 Y = 8.291258047316701E+00 Z =-2.909221264729095E-01
 VX=-5.392106222152040E-03 VY= 2.253589327685603E-03 VZ= 1.753499036255599E-04
 LT= 5.243068258733873E-02 RG= 9.078091277444454E+00 RR=-1.363690399285652E-04
2452110.500000000 = A.D. 2001-Jul-20 00:00:00.0000 TDB 
 X = 3.631402267505842E+00 Y = 8.313629562723673E+00 Z =-2.891628567028606E-01
 VX=-5.406656479833114E-03 VY= 2.220696721361075E-03 VZ= 1.765029572956333E-04
 LT= 5.242285441907459E-02 RG= 9.076735872125846E+00 RR=-1.347106277536627E-04
2452120.500000000 = A.D. 2001-Jul-30 00:00:00.0000 TDB 
 X = 3.577263818960079E+00 Y = 8.335671643396429E+00 Z =-2.873920892844762E-01
 VX=-5.420998442132292E-03 VY= 2.187702611049045E-03 VZ= 1.776494237357866E-04
 LT= 5.241512227388245E-02 RG= 9.075397092686771E+00 RR=-1.330438764595259E-04
2452130.500000000 = A.D. 2001-Aug-09 00:00:00.0000 TDB 
 X = 3.522982995819469E+00 Y = 8.357383281214261E+00 Z =-2.856098903760920E-01
 VX=-5.435131257950027E-03 VY= 2.154608381874884E-03 VZ= 1.787892458057909E-04
 LT= 5.240748663120679E-02 RG= 9.074075022140462E+00 RR=-1.313688621204922E-04
2452140.500000000 = A.D. 2001-Aug-19 00:00:00.0000 TDB 
 X = 3.468561893754362E+00 Y = 8.378763481946322E+00 Z =-2.838163267054169E-01
 VX=-5.449054088183697E-03 VY= 2.121415426677135E-03 VZ= 1.799223667722649E-04
 LT= 5.239994796601528E-02 RG= 9.072769742725022E+00 RR=-1.296856636721493E-04
2452150.500000000 = A.D. 2001-Aug-29 00:00:00.0000 TDB 
 X = 3.414002616766012E+00 Y = 8.399811265328729E+00 Z =-2.820114655654722E-01
 VX=-5.462766105751727E-03 VY= 2.088125146012173E-03 VZ= 1.810487303041064E-04
 LT= 5.239250674863797E-02 RG= 9.071481335875580E+00 RR=-1.279943627407114E-04
2452160.500000000 = A.D. 2001-Sep-08 00:00:00.0000 TDB 
 X = 3.359307277066478E+00 Y = 8.420525665141525E+00 Z =-2.801953748106273E-01
 VX=-5.476266495576781E-03 VY= 2.054738948084110E-03 VZ= 1.821682804612076E-04
 LT= 5.238516344461615E-02 RG= 9.070209882198107E+00 RR=-1.262950435258396E-04
2452170.500000000 = A.D. 2001-Sep-18 00:00:00.0000 TDB 
 X = 3.304477994958315E+00 Y = 8.440905729284326E+00 Z =-2.783681228527068E-01
 VX=-5.489554454657953E-03 VY= 2.021258248575261E-03 VZ= 1.832809616937651E-04
 LT= 5.237791851455367E-02 RG= 9.068955461443684E+00 RR=-1.245877928109202E-04
2452180.500000000 = A.D. 2001-Sep-28 00:00:00.0000 TDB 
 X = 3.249516898713084E+00 Y = 8.460950519850380E+00 Z =-2.765297786570550E-01
 VX=-5.502629192222889E-03 VY= 1.987684470514805E-03 VZ= 1.843867188488389E-04
 LT= 5.237077241396726E-02 RG= 9.067718152482598E+00 RR=-1.228726999664143E-04
2452190.500000000 = A.D. 2001-Oct-08 00:00:00.0000 TDB 
 X = 3.194426124448234E+00 Y = 8.480659113199764E+00 Z =-2.746804117385272E-01
 VX=-5.515489929891953E-03 VY= 1.954019044241634E-03 VZ= 1.854854971782713E-04
 LT= 5.236372559313919E-02 RG= 9.066498033278805E+00 RR=-1.211498568652458E-04
2452200.500000000 = A.D. 2001-Oct-18 00:00:00.0000 TDB 
 X = 3.139207816002504E+00 Y = 8.500030600032757E+00 Z =-2.728200921574269E-01
 VX=-5.528135901801532E-03 VY= 1.920263407482330E-03 VZ= 1.865772423399930E-04
 LT= 5.235677849697803E-02 RG= 9.065295180865828E+00 RR=-1.194193576697989E-04
2452210.500000000 = A.D. 2001-Oct-28 00:00:00.0000 TDB 
 X = 3.083864124810557E+00 Y = 8.519064085464526E+00 Z =-2.709488905154773E-01
 VX=-5.540566354619666E-03 VY= 1.886419005514243E-03 VZ= 1.876619003894119E-04
 LT= 5.234993156489585E-02 RG= 9.064109671325513E+00 RR=-1.176812984960770E-04
2452220.500000000 = A.D. 2001-Nov-07 00:00:00.0000 TDB 
 X = 3.028397209778111E+00 Y = 8.537758689101212E+00 Z =-2.690668779519377E-01
 VX=-5.552780547452474E-03 VY= 1.852487291247943E-03 VZ= 1.887394177619070E-04
 LT= 5.234318523070481E-02 RG= 9.062941579770106E+00 RR=-1.159357771148585E-04
2452230.500000000 = A.D. 2001-Nov-17 00:00:00.0000 TDB 
 X = 2.972809237157750E+00 Y = 8.556113545115894E+00 Z =-2.671741261398168E-01
 VX=-5.564777751825705E-03 VY= 1.818469725158212E-03 VZ= 1.898097412736775E-04
 LT= 5.233653992252547E-02 RG= 9.061790980326389E+00 RR=-1.141828928246136E-04
